# From MPC 78188
27P/Crommelin,e,29.1893,250.5993,195.9539,9.186253,0.0353994,0.91818716,126.7532,05/12.0/2021,2000,g 12.0,8.0
# From MPEC 2021-F20
28P/Neujmin,e,14.3121,346.3324,347.4083,6.977143,0.0534795,0.77379602,3.2687,05/12.0/2021,2000,g  8.5,6.0
# From MPEC 2021-J28
29P/Schwassmann-Wachmann,e,9.3668,312.3751,49.0156,6.037853,0.0664324,0.04456281,51.7655,05/12.0/2021,2000,g  4.0,4.0
# From MPC110085
30P/Reinmuth,e,8.3715,118.6233,9.8469,3.678880,0.1396788,0.53020197,193.8179,05/12.0/2021,2000,g  9.5,6.0
# From MPEC 2021-F20
31P/Schwassmann-Wachmann,e,4.5473,114.1113,18.1646,4.239199,0.1129219,0.19219587,76.4559,05/12.0/2021,2000,g 13.1,4.0
# From MPC 92276
32P/Comas Sola,e,9.8860,56.6408,54.0571,4.499837,0.1032545,0.55970032,248.8058,05/12.0/2021,2000,g  6.5,8.0
# From MPEC 2013-O31
33P/Daniel,e,22.3045,66.3277,20.5617,4.084891,0.1193805,0.45176804,207.1168,05/12.0/2021,2000,g 10.0,12.0
# From  15, 452
35P/Herschel-Rigollet,e,65.064,356.600,28.993,28.5622,0.006457,0.9737838,0.000,12/30.2892/2091,2000,g  9.0,4.0
# From MPEC 2021-F20
36P/Whipple,e,9.9517,181.8543,200.8368,4.132890,0.1173068,0.26882437,40.4794,05/12.0/2021,2000,g 14.2,4.0
# From MPEC 2021-F20
37P/Forbes,e,8.9576,314.5591,330.1135,3.460106,0.1531334,0.53387795,169.0132,05/12.0/2021,2000,g 13.8,4.0
# From MPEC 2018-S50
38P/Stephan-Oterma,e,18.3601,77.9733,359.5144,11.24185,0.0261485,0.85895504,23.8749,05/12.0/2021,2000,g  3.5,12.0
# From MPEC 2020-W26
39P/Oterma,e,1.5596,299.2155,95.7858,7.390467,0.0490565,0.22400755,323.7283,05/12.0/2021,2000,g  7.0,6.0
# From MPC100283
40P/Vaisala,e,11.4693,133.7782,47.4339,4.952034,0.0894394,0.62967330,212.3181,05/12.0/2021,2000,g  5.5,12.0
# From MPC105240
41P/Tuttle-Giacobini-Kresak,e,9.2209,140.9886,62.2494,3.086920,0.1817255,0.66003039,271.0605,05/12.0/2021,2000,g 10.0,16.0
# From MPC 94283
42P/Neujmin,e,3.9907,150.1790,147.2110,4.872994,0.0916242,0.58537526,203.6104,05/12.0/2021,2000,g 13.0,6.0
# From MPC102956
43P/Wolf-Harrington,e,9.3460,244.2000,224.1244,4.313392,0.1100210,0.43635029,189.7292,05/12.0/2021,2000,g  8.0,6.0
# From MPEC 2020-HN5
44P/Reinmuth,e,5.8985,286.4796,58.1407,3.688857,0.1391125,0.42734473,311.8002,05/12.0/2021,2000,g  8.3,6.0
# From MPC103849
45P/Honda-Mrkos-Pajdusakova,e,4.3237,87.7062,327.9259,3.051473,0.1849012,0.81750913,295.5510,05/12.0/2021,2000,g 13.5,8.0
# From MPEC 2021-F20
46P/Wirtanen,e,11.7434,82.1574,356.3457,3.091549,0.1813176,0.65823911,159.8421,05/12.0/2021,2000,g 14.4,4.0
# From MPEC 2021-F20
47P/Ashbrook-Jackson,e,13.0386,356.9212,357.6267,4.124232,0.1176764,0.31829047,168.3543,05/12.0/2021,2000,g 12.2,4.0
# From MPEC 2021-F20
48P/Johnson,e,12.2069,110.1252,216.6498,3.500823,0.1504696,0.42741808,150.9566,05/12.0/2021,2000,g 12.4,4.0
# From MPEC 2021-F20
49P/Arend-Rigaux,e,19.0458,118.7971,332.9544,3.569921,0.1461222,0.59825898,150.8828,05/12.0/2021,2000,g 13.4,4.0
# From MPEC 2015-S97
50P/Arend,e,19.0999,355.1711,49.3148,4.088916,0.1192043,0.52890629,229.1709,05/12.0/2021,2000,g  9.5,6.0
# From NK 3013
51P-A/Harrington,e,5.4262,83.6637,269.2799,3.707356,0.1380726,0.54330317,289.8829,05/12.0/2021,2000,g 16.0,8.0
# From NK 3014
51P-A/Harrington,e,5.4255,83.6792,269.2408,3.708370,0.1380160,0.54337646,289.6106,05/12.0/2021,2000,g 10.0,8.0
# From NK 3014
51P-A/Harrington,e,5.4255,83.6792,269.2408,3.708352,0.1380170,0.54337335,289.6142,05/12.0/2021,2000,g 10.0,8.0
# From MPEC 2015-L08
51P-D/Harrington,e,5.4269,83.6692,269.2301,3.707444,0.1380677,0.54331738,289.8765,05/12.0/2021,2000,g 16.0,8.0
# From MPEC 2015-L08
51P-D/Harrington,e,5.4269,83.6681,269.2309,3.707432,0.1380684,0.54331793,289.8818,05/12.0/2021,2000,g 16.0,8.0
# From NK 3013
51P-D/Harrington,e,5.4262,83.6640,269.2796,3.707356,0.1380727,0.54330336,289.8830,05/12.0/2021,2000,g 16.0,8.0
# From NK 3013
51P-D/Harrington,e,5.4262,83.6640,269.2796,3.707356,0.1380727,0.54330349,289.8830,05/12.0/2021,2000,g 16.0,8.0
# From MPC 88330
52P/Harrington-Abell,e,10.2317,336.8388,139.5986,3.863379,0.1297936,0.53998702,341.0238,05/12.0/2021,2000,g 13.5,6.0
# From MPC100283
53P/Van Biesbroeck,e,6.6092,148.8152,134.4685,5.426997,0.0779587,0.55191391,143.2145,05/12.0/2021,2000,g  7.7,4.8
# From MPC 89011
54P/de Vico-Swift-NEAT,e,6.0637,358.8147,1.7765,3.791830,0.1334845,0.42591587,198.3840,05/12.0/2021,2000,g  9.0,4.0
# From MPC 31070
55P/Tempel-Tuttle,e,162.4224,235.4063,172.5093,10.35355,0.0295849,0.90624540,251.7767,05/12.0/2021,2000,g  9.0,4.0
# From MPC101100
56P/Slaughter-Burnham,e,8.1605,345.9921,43.9851,5.069808,0.0863409,0.50742309,151.7643,05/12.0/2021,2000,g  8.5,6.0
# From MPEC 2021-J28
57P/du Toit-Neujmin-Delporte,e,2.8509,188.7796,115.2590,3.445959,0.1540774,0.50082549,335.5859,05/12.0/2021,2000,g 12.5,6.0
# From MPEC 2021-F20
58P/Jackson-Neujmin,e,13.1075,159.0774,200.4761,4.085108,0.1193710,0.66276821,41.7211,05/12.0/2021,2000,g 14.1,4.0
# From MPEC 2021-F20
59P/Kearns-Kwee,e,9.3413,312.8338,127.5472,4.487465,0.1036818,0.47507993,100.4233,05/12.0/2021,2000,g  7.0,6.0
# From MPEC 2021-F20
60P/Tsuchinshan,e,3.5914,267.5557,216.9412,3.522628,0.1490747,0.53510376,131.7982,05/12.0/2021,2000,g 11.5,6.0
# From MPEC 2015-Q71
61P/Shajn-Schaldach,e,5.9988,162.9786,221.8407,3.686508,0.1392456,0.42389847,286.1540,05/12.0/2021,2000,g  6.0,10.0
# From MPC109147
62P/Tsuchinshan,e,4.7723,69.6383,46.8421,3.351279,0.1606528,0.63031589,206.5975,05/12.0/2021,2000,g  8.0,10.0
# From MPC 84320
63P/Wild,e,19.7291,358.0186,169.1051,5.606457,0.0742457,0.64883196,219.8012,05/12.0/2021,2000,g 10.5,6.0
# From MPEC 2021-F20
64P/Swift-Gehrels,e,8.9500,299.9960,97.0723,4.453804,0.1048594,0.68791388,96.4528,05/12.0/2021,2000,g 13.4,4.0
# From MPEC 2021-F20
65P/Gunn,e,9.1797,62.0192,213.8697,3.885771,0.1286733,0.24947184,167.5650,05/12.0/2021,2000,g 11.2,4.0
# From MPEC 2021-F20
66P/duToit,e,18.6506,21.8347,257.3726,6.066239,0.0659667,0.78675474,71.8299,05/12.0/2021,2000,g 15.0,4.0
# From MPC 89011
67P/Churyumov-Gerasimenko,e,3.8710,36.3431,22.1127,3.458007,0.1532728,0.64991343,333.3255,05/12.0/2021,2000,g 11.0,4.0
# From MPC 75716
68P/Klemola,e,11.1102,175.0640,153.1303,4.953144,0.0894093,0.63764550,49.1633,05/12.0/2021,2000,g 10.0,4.0
# From MPC114607
69P/Taylor,e,22.0338,104.8263,343.4530,3.887581,0.1285834,0.41309236,101.0507,05/12.0/2021,2000,g  9.5,12.0
# From MPEC 2021-BE3
70P/Kojima,e,6.5982,119.2687,1.8401,3.676735,0.1398011,0.45360281,335.5138,05/12.0/2021,2000,g 11.0,6.0
# From MPC107051
71P/Clark,e,9.4383,59.4189,209.0471,3.138335,0.1772782,0.49397304,250.1749,05/12.0/2021,2000,g  9.8,6.0
# From MPC 89011
72P/Denning-Fujikawa,e,10.9406,26.6911,346.6867,4.310846,0.1101185,0.81837882,275.7579,05/12.0/2021,2000,g 17.5,10.0
# From MPC106348
73P/Schwassmann-Wachmann,e,11.2295,69.6318,199.4655,3.092934,0.1811958,0.68553793,274.7238,05/12.0/2021,2000,g 11.5,6.0
# From MPC106348
73P-T/Schwassmann-Wachmann,e,11.2316,69.6344,199.4469,3.094497,0.1810585,0.68574052,274.5169,05/12.0/2021,2000,g 11.5,6.0
# From MPEC 2021-BE3
74P/Smirnova-Chernykh,e,6.2286,73.3281,103.8005,4.304459,0.1103637,0.14991074,123.4608,05/12.0/2021,2000,g  5.0,6.0
# From MPEC 2021-F20
76P/West-Kohoutek-Ikemura,e,30.4593,84.1169,359.9731,3.472765,0.1522969,0.53812271,85.8865,05/12.0/2021,2000,g 15.5,4.0
# From MPC100283
77P/Longmore,e,24.3193,14.7830,196.8385,3.621736,0.1429977,0.35206027,261.1402,05/12.0/2021,2000,g  7.0,8.0
# From MPEC 2016-U66
78P/Gehrels,e,6.2511,210.5203,192.6314,3.738905,0.1363287,0.46202229,105.0038,05/12.0/2021,2000,g  9.0,4.0
# From MPC 94675
79P/du Toit-Hartley,e,3.1479,280.5320,281.8001,2.942893,0.1952282,0.61884852,189.8030,05/12.0/2021,2000,g 16.0,4.0
# From MPEC 2014-P41
80P/Peters-Hartley,e,29.9316,259.8169,339.2521,4.024354,0.1220843,0.59883051,289.7048,05/12.0/2021,2000,g  9.0,4.0
# From MPC105241
81P/Wild,e,3.2368,136.0983,41.6836,3.451544,0.1537035,0.53704326,270.4275,05/12.0/2021,2000,g  7.0,6.0
# From MPEC 2020-FB5
84P/Giclas,e,7.5519,108.1740,281.5727,3.549020,0.1474149,0.51570305,50.4372,05/12.0/2021,2000,g  9.5,8.0
# From MPC109147
86P/Wild,e,15.4741,72.3611,179.3743,3.602578,0.1441398,0.37244937,320.8641,05/12.0/2021,2000,g 11.0,6.0
# From MPEC 2020-SI8
87P/Bus,e,2.6050,181.7884,25.1600,3.443857,0.1542185,0.39002839,56.6318,05/12.0/2021,2000,g  7.2,10.0
# From MPEC 2021-F20
88P/Howell,e,4.3837,56.6795,235.9036,3.105056,0.1801358,0.56424568,40.9666,05/12.0/2021,2000,g 12.4,4.0
# From MPC100283
89P/Russell,e,12.0693,41.3835,250.3368,3.753969,0.1355090,0.40859533,217.8605,05/12.0/2021,2000,g 11.5,6.0
# From MPC107051
90P/Gehrels,e,9.6462,13.2061,29.0688,6.052939,0.0661843,0.51007915,94.1584,05/12.0/2021,2000,g  8.5,6.0
# From MPC105241
91P/Russell,e,14.0878,247.8200,354.8530,3.893241,0.1283031,0.33106752,23.5354,05/12.0/2021,2000,g  7.5,6.0
# From MPEC 2014-J58
92P/Sanguin,e,19.4948,181.3703,163.7472,5.344456,0.0797717,0.66088015,180.3394,05/12.0/2021,2000,g 12.0,6.0
# From NK 2707
93P/Lovas,e,12.2033,339.6450,74.8161,4.382939,0.1074128,0.61252937,164.6709,05/12.0/2021,2000,g  9.0,4.0
# From MPEC 2020-W26
94P/Russell,e,6.1879,70.8589,92.4648,3.507336,0.1500507,0.36487371,249.0419,05/12.0/2021,2000,g  9.0,6.0
# From MPC 75717
95P/Chiron,e,6.9310,209.2713,339.7228,13.69928,0.0194383,0.37739105,179.6982,05/12.0/2021,2000,g  6.5,2.0
# From MPEC 2017-T14
96P/Machholz,e,57.6093,94.0061,14.7361,3.028107,0.1870455,0.96159463,242.2973,05/12.0/2021,2000,g  9.0,4.0
# From MPC 77020
97P/Metcalf-Brewington,e,17.9455,184.0797,229.8905,4.765451,0.0947432,0.46055332,333.5427,05/12.0/2021,2000,g  5.5,6.0
# From MPEC 2013-H38
98P/Takamizawa,e,10.5608,114.7104,157.9079,3.800242,0.1330415,0.56242643,16.9081,05/12.0/2021,2000,g  9.0,8.0
# From MPEC 2021-J28
99P/Kowal,e,4.3388,28.1072,174.9607,6.110013,0.0652591,0.22980819,338.0791,05/12.0/2021,2000,g  4.5,6.0
# From MPEC 2013-O31
100P/Hartley,e,25.5653,37.7012,181.9911,3.432312,0.1549973,0.41234571,289.3247,05/12.0/2021,2000,g  9.0,4.0
# From MPEC 2020-FB5
101P/Chernykh,e,5.0527,116.2291,277.7035,5.802849,0.0705086,0.59593392,34.2244,05/12.0/2021,2000,g 10.0,4.8
# From MPC 86232
